NORAD_CAT_ID,OBJECT_NAME,OBJECT_TYPE,EPOCH,MEAN_MOTION,ECCENTRICITY,INCLINATION,RA_OF_ASC_NODE,ARG_OF_PERICENTER,MEAN_ANOMALY,BSTAR,MEAN_MOTION_DOT,MEAN_MOTION_DDOT,TLE_LINE0,TLE_LINE1,TLE_LINE2,SEMIMAJOR_AXIS,PERIOD,APOGEE,PERIGEE,DECAYED
53781.0,STARLINK-4462,PAYLOAD,2024-04-06 12:40:24,15.08842423,0.0001297,53.2164,186.2434,88.4193,271.6947,7.3376e-05,8.8e-06,0.0,0 STARLINK-4462,1 53781U 22111J   24097.52806155  .00000880  00000-0  73376-4 0  9991,2 53781  53.2164 186.2434 0001297  88.4193 271.6947 15.08842423 86880,6917.873,95.437,540.635,538.841,0.0
53781.0,STARLINK-4462,PAYLOAD,2024-04-06 15:51:10,15.08842531,0.0001296,53.2163,185.6488,89.0064,271.1077,9.2008e-05,1.177e-05,0.0,0 STARLINK-4462,1 53781U 22111J   24097.66054164  .00001177  00000-0  92008-4 0  9994,2 53781  53.2163 185.6488 0001296  89.0064 271.1077 15.08842531 87716,6917.873,95.437,540.634,538.841,0.0
53781.0,STARLINK-4462,PAYLOAD,2024-04-07 09:20:26,15.08830739,0.0001686,53.2169,182.378,90.4032,269.7153,-0.00012557,-2.285e-05,0.0,0 STARLINK-4462,1 53781U 22111J   24098.38919042 -.00002285  00000-0 -12557-3 0  9992,2 53781  53.2169 182.3780 0001686  90.4032 269.7153 15.08830739 87013,6917.909,95.438,540.94,538.607,0.0
53781.0,STARLINK-4462,PAYLOAD,2024-04-07 12:31:12,15.08832913,0.0001148,53.216,181.7834,89.9392,270.1732,-8.0402e-05,-1.567e-05,0.0,0 STARLINK-4462,1 53781U 22111J   24098.52167030 -.00001567  00000-0 -80402-4 0  9997,2 53781  53.2160 181.7834 0001148  89.9392 270.1732 15.08832913 87848,6917.902,95.438,540.561,538.973,0.0
53781.0,STARLINK-4462,PAYLOAD,2024-04-07 22:03:31,15.08834258,0.0001481,53.2154,180.0011,97.4253,262.6907,-4.8479e-06,-3.65e-06,0.0,0 STARLINK-4462,1 53781U 22111J   24098.91911123 -.00000365  00000-0 -48479-5 0  9994,2 53781  53.2154 180.0011 0001481  97.4253 262.6907 15.08834258 87901,6917.898,95.438,540.787,538.738,0.0
53781.0,STARLINK-4462,PAYLOAD,2024-04-08 12:21:59,15.08846088,0.0001352,53.2164,177.325,98.4143,261.7003,0.00034704,5.24e-05,0.0,0 STARLINK-4462,1 53781U 22111J   24099.51526981  .00005240  00000-0  34704-3 0  9994,2 53781  53.2164 177.3250 0001352  98.4143 261.7003 15.08846088 87183,6917.862,95.437,540.662,538.791,0.0
53781.0,STARLINK-4462,PAYLOAD,2024-04-08 21:54:18,15.0884656,0.0001279,53.2157,175.5413,102.0651,258.0484,0.000187,2.69e-05,0.0,0 STARLINK-4462,1 53781U 22111J   24099.91270906  .00002690  00000-0  18700-3 0  9995,2 53781  53.2157 175.5413 0001279 102.0651 258.0484 15.08846560 88054,6917.86,95.437,540.61,538.841,0.0
53781.0,STARLINK-4462,PAYLOAD,2024-04-09 09:02:00,15.08841468,0.0001322,53.2161,173.46,101.958,258.156,0.00011153,1.488e-05,0.0,0 STARLINK-4462,1 53781U 22111J   24100.37639135  .00001488  00000-0  11153-3 0  9990,2 53781  53.2161 173.4600 0001322 101.9580 258.1560 15.08841468 87318,6917.876,95.437,540.655,538.826,0.0
53781.0,STARLINK-4462,PAYLOAD,2024-04-09 21:45:05,15.08849494,0.000158,53.2163,171.0793,89.0965,271.0208,0.00023346,3.43e-05,0.0,0 STARLINK-4462,1 53781U 22111J   24100.90630871  .00003430  00000-0  23346-3 0  9993,2 53781  53.2163 171.0793 0001580  89.0965 271.0208 15.08849494 88205,6917.851,95.437,540.809,538.623,0.0
53781.0,STARLINK-4462,PAYLOAD,2024-04-10 10:28:10,15.08846848,0.0001777,53.2175,168.7002,91.5341,268.5855,0.00012626,1.722e-05,0.0,0 STARLINK-4462,1 53781U 22111J   24101.43622841  .00001722  00000-0  12626-3 0  9991,2 53781  53.2175 168.7002 0001777  91.5341 268.5855 15.08846848 87475,6917.859,95.437,540.954,538.495,0.0
53781.0,STARLINK-4462,PAYLOAD,2024-04-10 13:38:56,15.08846229,0.0001912,53.2175,168.1054,94.3059,265.8152,0.0001496,2.094e-05,0.0,0 STARLINK-4462,1 53781U 22111J   24101.56870846  .00002094  00000-0  14960-3 0  9991,2 53781  53.2175 168.1054 0001912  94.3059 265.8152 15.08846229 88300,6917.861,95.437,541.049,538.404,0.0
53781.0,STARLINK-4462,PAYLOAD,2024-04-10 21:35:52,15.0883437,0.0002039,53.2163,166.6182,81.8114,278.3109,-3.5318e-05,-8.5e-06,0.0,0 STARLINK-4462,1 53781U 22111J   24101.89991468 -.00000850  00000-0 -35318-4 0  9992,2 53781  53.2163 166.6182 0002039  81.8114 278.3109 15.08834370 88356,6917.898,95.438,541.173,538.352,0.0
53781.0,STARLINK-4462,PAYLOAD,2024-04-11 11:54:21,15.08834705,0.0001578,53.2156,163.9424,81.7618,278.3553,-6.7788e-06,-3.96e-06,0.0,0 STARLINK-4462,1 53781U 22111J   24102.49607727 -.00000396  00000-0 -67788-5 0  9993,2 53781  53.2156 163.9424 0001578  81.7618 278.3553 15.08834705 88447,6917.897,95.438,540.853,538.67,0.0
53781.0,STARLINK-4462,PAYLOAD,2024-04-11 21:26:39,15.08838235,0.000131,53.2158,162.1585,81.1092,279.0049,0.00014263,1.983e-05,0.0,0 STARLINK-4462,1 53781U 22111J   24102.89351608  .00001983  00000-0  14263-3 0  9990,2 53781  53.2158 162.1585 0001310  81.1092 279.0049 15.08838235 88509,6917.886,95.438,540.657,538.845,0.0
53781.0,STARLINK-4462,PAYLOAD,2024-04-12 03:48:12,15.0884054,0.0001305,53.2158,160.9687,81.1216,278.9924,0.00017659,2.524e-05,0.0,0 STARLINK-4462,1 53781U 22111J   24103.15847595  .00002524  00000-0  17659-3 0  9999,2 53781  53.2158 160.9687 0001305  81.1216 278.9924 15.08840540 87736,6917.879,95.438,540.647,538.841,0.0
53781.0,STARLINK-4462,PAYLOAD,2024-04-12 10:09:44,15.0884696,0.0001394,53.2155,159.779,77.6523,282.4625,0.00022841,3.35e-05,0.0,0 STARLINK-4462,1 53781U 22111J   24103.42343399  .00003350  00000-0  22841-3 0  9999,2 53781  53.2155 159.7790 0001394  77.6523 282.4625 15.08846960 88587,6917.859,95.437,540.688,538.76,0.0
53781.0,STARLINK-4462,PAYLOAD,2024-04-13 10:00:31,15.08849801,0.0001427,53.2149,155.3193,72.7768,287.338,0.00029233,4.369e-05,0.0,0 STARLINK-4462,1 53781U 22111J   24104.41703338  .00004369  00000-0  29233-3 0  9995,2 53781  53.2149 155.3193 0001427  72.7768 287.3380 15.08849801 87929,6917.85,95.437,540.703,538.728,0.0
53781.0,STARLINK-4462,PAYLOAD,2024-04-14 03:29:46,15.08841866,0.0001638,53.2159,152.0484,75.3168,284.8006,3.3397e-05,2.44e-06,0.0,0 STARLINK-4462,1 53781U 22111J   24105.14567516  .00000244  00000-0  33397-4 0  9997,2 53781  53.2159 152.0484 0001638  75.3168 284.8006 15.08841866 88037,6917.875,95.437,540.873,538.607,0.0
53781.0,STARLINK-4462,PAYLOAD,2024-04-14 09:51:19,15.08839945,0.0001559,53.2177,150.8592,95.1841,264.9329,1.2786e-05,-8.5e-07,0.0,0 STARLINK-4462,1 53781U 22111J   24105.41063748 -.00000085  00000-0  12786-4 0  9998,2 53781  53.2177 150.8592 0001559  95.1841 264.9329 15.08839945 88888,6917.881,95.438,540.824,538.667,0.0
53781.0,STARLINK-4462,PAYLOAD,2024-04-15 09:42:05,15.0884543,0.0001599,53.2178,146.3994,101.9961,258.1211,0.00010406,1.369e-05,0.0,0 STARLINK-4462,1 53781U 22111J   24106.40423111  .00001369  00000-0  10406-3 0  9993,2 53781  53.2178 146.3994 0001599 101.9961 258.1211 15.08845430 88227,6917.864,95.437,540.835,538.623,0.0
53781.0,STARLINK-4462,PAYLOAD,2024-04-15 19:14:24,15.08842956,0.0001508,53.2174,144.6134,90.9138,269.2027,0.00011711,1.576e-05,0.0,0 STARLINK-4462,1 53781U 22111J   24106.80167271  .00001576  00000-0  11711-3 0  9999,2 53781  53.2174 144.6134 0001508  90.9138 269.2027 15.08842956 89097,6917.871,95.437,540.78,538.693,0.0
53781.0,STARLINK-4462,PAYLOAD,2024-04-16 11:08:16,15.08829962,0.0001693,53.2158,141.6399,88.9419,271.1767,-0.00015248,-2.713e-05,0.0,0 STARLINK-4462,1 53781U 22111J   24107.46408052 -.00002713  00000-0 -15248-3 0  9992,2 53781  53.2158 141.6399 0001693  88.9419 271.1767 15.08829962 88389,6917.911,95.438,540.947,538.605,0.0
53781.0,STARLINK-4462,PAYLOAD,2024-04-17 10:59:02,15.08860838,0.0001365,53.2154,137.1789,92.6144,267.5004,0.00024816,3.666e-05,0.0,0 STARLINK-4462,1 53781U 22111J   24108.45766312  .00003666  00000-0  24816-3 0  9995,2 53781  53.2154 137.1789 0001365  92.6144 267.5004 15.08860838 88538,6917.817,95.436,540.626,538.737,0.0
53781.0,STARLINK-4462,PAYLOAD,2024-04-18 10:49:51,15.08826779,0.0001642,53.2157,132.7176,83.6813,276.4366,1.1796e-05,-1e-06,0.0,0 STARLINK-4462,1 53781U 22111J   24109.45128790 -.00000100  00000-0  11796-4 0  9993,2 53781  53.2157 132.7176 0001642  83.6813 276.4366 15.08826779 88685,6917.921,95.438,540.922,538.65,0.0
53781.0,STARLINK-4462,PAYLOAD,2024-04-19 01:08:19,15.08839841,0.0001534,53.2164,130.0391,80.2317,279.8849,2.0706e-05,4.2e-07,0.0,0 STARLINK-4462,1 53781U 22111J   24110.04744452  .00000042  00000-0  20706-4 0  9994,2 53781  53.2164 130.0391 0001534  80.2317 279.8849 15.08839841 88772,6917.881,95.438,540.807,538.685,0.0
53781.0,STARLINK-4462,PAYLOAD,2024-04-19 07:29:51,15.08847287,0.0001795,53.2164,128.8552,65.79,294.328,0.00028881,4.312e-05,0.0,0 STARLINK-4462,1 53781U 22111J   24110.31240310  .00004312  00000-0  28881-3 0  9993,2 53781  53.2164 128.8552 0001795  65.7900 294.3280 15.08847287 89620,6917.858,95.437,540.965,538.481,0.0
53781.0,STARLINK-4462,PAYLOAD,2024-04-20 07:20:38,15.0886563,0.0001938,53.2155,124.3942,66.4281,293.6914,0.00062046,9.607e-05,0.0,0 STARLINK-4462,1 53781U 22111J   24111.30599558  .00009607  00000-0  62046-3 0  9997,2 53781  53.2155 124.3942 0001938  66.4281 293.6914 15.08865630 89777,6917.802,95.436,541.008,538.326,0.0
53781.0,STARLINK-4462,PAYLOAD,2024-04-21 04:00:39,15.08825508,0.0001575,53.2164,120.5278,103.5143,256.6025,-0.00023997,-4.104e-05,0.0,0 STARLINK-4462,1 53781U 22111J   24112.16712783 -.00004104  00000-0 -23997-3 0  9990,2 53781  53.2164 120.5278 0001575 103.5143 256.6025 15.08825508 89091,6917.925,95.438,540.879,538.7,0.0
53781.0,STARLINK-4462,PAYLOAD,2024-04-21 10:22:12,15.08819079,0.0001516,53.2158,119.3377,108.1796,251.9362,-0.0002779,-4.705e-05,0.0,0 STARLINK-4462,1 53781U 22111J   24112.43209374 -.00004705  00000-0 -27790-3 0  9999,2 53781  53.2158 119.3377 0001516 108.1796 251.9362 15.08819079 89942,6917.944,95.439,540.858,538.761,0.0
53781.0,STARLINK-4462,PAYLOAD,2024-04-22 10:13:00,15.08852456,0.0001975,53.216,114.8711,133.5051,226.6105,0.0015183,0.00023967,0.0,0 STARLINK-4462,1 53781U 22111J   24113.42569519  .00023967  00000-0  15183-2 0  9990,2 53781  53.2160 114.8711 0001975 133.5051 226.6105 15.08852456 89289,6917.842,95.437,541.074,538.341,0.0
